{"fetched_at":"2026-03-30T06:02:59Z","count":15439,"tles":[{"name":"STARLINK-3043","line1":"1 49179U 21082BB  26087.74008413  .00000019  00000+0  93738-5 0  9997","line2":"2 49179  70.0009 206.4085 0002295 273.3657  86.7239 14.98335977249819","category":"Starlink"}]}