{
  "norad_id": 49179,
  "name": "STARLINK-3043",
  "history": [
    {
      "epoch": "2026-03-28T17:45:43.268832",
      "apogee_km": 573.6326811581876,
      "perigee_km": 570.4421340946228,
      "latitude_deg": 35.235683452565425,
      "longitude_deg": -111.05192352016456,
      "semi_major_axis_km": 6950.174407626405,
      "eccentricity": 0.00022953,
      "inclination_deg": 70.0009,
      "raan_deg": 206.4085,
      "arg_perigee_deg": 273.3657,
      "mean_anomaly_deg": 86.7239,
      "mean_motion_rev_day": 14.98335977
    }
  ]
}